[
    {
        "Altitude(m)": 610399.5054469587,
        "Argument of Periapsis(deg)": 0.0,
        "Eccentricity": 0.0,
        "Inclination(deg)": 60.0,
        "Latitude(deg)": 52.111270413405016,
        "Longitude(deg)": -112.41564273673096,
        "Mean Anomaly(deg)": -294.5455,
        "RAAN(deg)": 300.0,
        "Satellite Name": "Test1 1324",
        "Satellite Number": 1324,
        "Semi-Major Axis(m)": 6980739.136638005,
        "Time(s)": 0
    },
    {
        "Altitude(m)": 610481.6564126473,
        "Argument of Periapsis(deg)": 0.00010418945913296404,
        "Eccentricity": 0.0,
        "Inclination(deg)": 60.0,
        "Latitude(deg)": 52.47087212904762,
        "Longitude(deg)": -111.6335069915834,
        "Mean Anomaly(deg)": -293.9253938545382,
        "RAAN(deg)": 299.99957995086027,
        "Satellite Name": "Test1 1324",
        "Satellite Number": 1324,
        "Semi-Major Axis(m)": 6980739.136638005,
        "Time(s)": 10
    },
    {
        "Altitude(m)": 610562.3461983196,
        "Argument of Periapsis(deg)": 0.0002083789182659281,
        "Eccentricity": 0.0,
        "Inclination(deg)": 60.0,
        "Latitude(deg)": 52.82462644448425,
        "Longitude(deg)": -110.83795829745571,
        "Mean Anomaly(deg)": -293.30528770907637,
        "RAAN(deg)": 299.99915990172053,
        "Satellite Name": "Test1 1324",
        "Satellite Number": 1324,
        "Semi-Major Axis(m)": 6980739.136638005,
        "Time(s)": 20
    },
    {
        "Altitude(m)": 610641.5273380746,
        "Argument of Periapsis(deg)": 0.00031256837739889213,
        "Eccentricity": 0.0,
        "Inclination(deg)": 60.0,
        "Latitude(deg)": 53.17236383331717,
        "Longitude(deg)": -110.02883214580672,
        "Mean Anomaly(deg)": -292.6851815636145,
        "RAAN(deg)": 299.9987398525808,
        "Satellite Name": "Test1 1324",
        "Satellite Number": 1324,
        "Semi-Major Axis(m)": 6980739.136638005,
        "Time(s)": 30
    },
    {
        "Altitude(m)": 610719.1533224703,
        "Argument of Periapsis(deg)": 0.0004167578365318562,
        "Eccentricity": 0.0,
        "Inclination(deg)": 60.0,
        "Latitude(deg)": 53.513911293272436,
        "Longitude(deg)": -109.20597564059025,
        "Mean Anomaly(deg)": -292.0650754181527,
        "RAAN(deg)": 299.99831980344106,
        "Satellite Name": "Test1 1324",
        "Satellite Number": 1324,
        "Semi-Major Axis(m)": 6980739.136638005,
        "Time(s)": 40
    },
    {
        "Altitude(m)": 610795.1786208359,
        "Argument of Periapsis(deg)": 0.0005209472956648203,
        "Eccentricity": 0.0,
        "Inclination(deg)": 60.0,
        "Latitude(deg)": 53.84909246816627,
        "Longitude(deg)": -108.36924991242797,
        "Mean Anomaly(deg)": -291.44496927269086,
        "RAAN(deg)": 299.9978997543013,
        "Satellite Name": "Test1 1324",
        "Satellite Number": 1324,
        "Semi-Major Axis(m)": 6980739.136638005,
        "Time(s)": 50
    },
    {
        "Altitude(m)": 610869.5587031153,
        "Argument of Periapsis(deg)": 0.0006251367547977843,
        "Eccentricity": 0.0,
        "Inclination(deg)": 60.0,
        "Latitude(deg)": 54.17772779419441,
        "Longitude(deg)": -107.51853108555663,
        "Mean Anomaly(deg)": -290.82486312722904,
        "RAAN(deg)": 299.99747970516154,
        "Satellite Name": "Test1 1324",
        "Satellite Number": 1324,
        "Semi-Major Axis(m)": 6980739.136638005,
        "Time(s)": 60
    },
    {
        "Altitude(m)": 610942.2500611931,
        "Argument of Periapsis(deg)": 0.0007293262139307483,
        "Eccentricity": 0.0,
        "Inclination(deg)": 60.0,
        "Latitude(deg)": 54.49963467221073,
        "Longitude(deg)": -106.65371130611138,
        "Mean Anomaly(deg)": -290.2047569817672,
        "RAAN(deg)": 299.99705965602186,
        "Satellite Name": "Test1 1324",
        "Satellite Number": 1324,
        "Semi-Major Axis(m)": 6980739.136638005,
        "Time(s)": 70
    },
    {
        "Altitude(m)": 611013.2102297071,
        "Argument of Periapsis(deg)": 0.0008335156730637124,
        "Eccentricity": 0.0,
        "Inclination(deg)": 60.0,
        "Latitude(deg)": 54.814627667619924,
        "Longitude(deg)": -105.77470133900252,
        "Mean Anomaly(deg)": -289.58465083630534,
        "RAAN(deg)": 299.99663960688207,
        "Satellite Name": "Test1 1324",
        "Satellite Number": 1324,
        "Semi-Major Axis(m)": 6980739.136638005,
        "Time(s)": 80
    },
    {
        "Altitude(m)": 611082.397806356,
        "Argument of Periapsis(deg)": 0.0009377051321966765,
        "Eccentricity": 0.0,
        "Inclination(deg)": 60.0,
        "Latitude(deg)": 55.12251873944131,
        "Longitude(deg)": -104.8814317005965,
        "Mean Anomaly(deg)": -288.9645446908435,
        "RAAN(deg)": 299.99621955774234,
        "Satellite Name": "Test1 1324",
        "Satellite Number": 1324,
        "Semi-Major Axis(m)": 6980739.136638005,
        "Time(s)": 90
    },
    {
        "Altitude(m)": 611149.7724716861,
        "Argument of Periapsis(deg)": 0.0010418945913296407,
        "Eccentricity": 0.0,
        "Inclination(deg)": 60.0,
        "Latitude(deg)": 55.42311750000519,
        "Longitude(deg)": -103.9738538314845,
        "Mean Anomaly(deg)": -288.3444385453817,
        "RAAN(deg)": 299.9957995086026,
        "Satellite Name": "Test1 1324",
        "Satellite Number": 1324,
        "Semi-Major Axis(m)": 6980739.136638005,
        "Time(s)": 100
    },
    {
        "Altitude(m)": 611215.2950083243,
        "Argument of Periapsis(deg)": 0.0011460840504626045,
        "Eccentricity": 0.0,
        "Inclination(deg)": 60.0,
        "Latitude(deg)": 55.71623150661081,
        "Longitude(deg)": -103.05194281198263,
        "Mean Anomaly(deg)": -287.7243323999199,
        "RAAN(deg)": 299.99537945946287,
        "Satellite Name": "Test1 1324",
        "Satellite Number": 1324,
        "Semi-Major Axis(m)": 6980739.136638005,
        "Time(s)": 110
    },
    {
        "Altitude(m)": 611278.927319685,
        "Argument of Periapsis(deg)": 0.0012502735095955685,
        "Eccentricity": 0.0,
        "Inclination(deg)": 60.0,
        "Latitude(deg)": 56.00166658630275,
        "Longitude(deg)": -102.11569858267578,
        "Mean Anomaly(deg)": -287.104226254458,
        "RAAN(deg)": 299.99495941032313,
        "Satellite Name": "Test1 1324",
        "Satellite Number": 1324,
        "Semi-Major Axis(m)": 6980739.136638005,
        "Time(s)": 120
    },
    {
        "Altitude(m)": 611340.6324481147,
        "Argument of Periapsis(deg)": 0.0013544629687285324,
        "Eccentricity": 0.0,
        "Inclination(deg)": 60.0,
        "Latitude(deg)": 56.27922719471438,
        "Longitude(deg)": -101.16514716915421,
        "Mean Anomaly(deg)": -286.4841201089962,
        "RAAN(deg)": 299.99453936118334,
        "Satellite Name": "Test1 1324",
        "Satellite Number": 1324,
        "Semi-Major Axis(m)": 6980739.136638005,
        "Time(s)": 130
    },
    {
        "Altitude(m)": 611400.374592525,
        "Argument of Periapsis(deg)": 0.0014586524278614966,
        "Eccentricity": 0.0,
        "Inclination(deg)": 60.0,
        "Latitude(deg)": 56.54871680967232,
        "Longitude(deg)": -100.20034340828934,
        "Mean Anomaly(deg)": -285.8640139635344,
        "RAAN(deg)": 299.9941193120436,
        "Satellite Name": "Test1 1324",
        "Satellite Number": 1324,
        "Semi-Major Axis(m)": 6980739.136638005,
        "Time(s)": 140
    },
    {
        "Altitude(m)": 611458.1191253704,
        "Argument of Periapsis(deg)": 0.0015628418869944607,
        "Eccentricity": 0.0,
        "Inclination(deg)": 60.0,
        "Latitude(deg)": 56.80993835995683,
        "Longitude(deg)": -99.2213721329922,
        "Mean Anomaly(deg)": -285.24390781807256,
        "RAAN(deg)": 299.99369926290393,
        "Satellite Name": "Test1 1324",
        "Satellite Number": 1324,
        "Semi-Major Axis(m)": 6980739.136638005,
        "Time(s)": 150
    },
    {
        "Altitude(m)": 611513.8326091534,
        "Argument of Periapsis(deg)": 0.0016670313461274247,
        "Eccentricity": 0.0,
        "Inclination(deg)": 60.0,
        "Latitude(deg)": 57.06269468926845,
        "Longitude(deg)": -98.2283493092718,
        "Mean Anomaly(deg)": -284.62380167261074,
        "RAAN(deg)": 299.99327921376414,
        "Satellite Name": "Test1 1324",
        "Satellite Number": 1324,
        "Semi-Major Axis(m)": 6980739.136638005,
        "Time(s)": 160
    },
    {
        "Altitude(m)": 611567.4828122957,
        "Argument of Periapsis(deg)": 0.0017712208052603888,
        "Eccentricity": 0.0,
        "Inclination(deg)": 60.0,
        "Latitude(deg)": 57.30678905506399,
        "Longitude(deg)": -97.22142461776436,
        "Mean Anomaly(deg)": -284.00369552714886,
        "RAAN(deg)": 299.9928591646244,
        "Satellite Name": "Test1 1324",
        "Satellite Number": 1324,
        "Semi-Major Axis(m)": 6980739.136638005,
        "Time(s)": 170
    },
    {
        "Altitude(m)": 611619.0387244462,
        "Argument of Periapsis(deg)": 0.001875410264393353,
        "Eccentricity": 0.0,
        "Inclination(deg)": 60.0,
        "Latitude(deg)": 57.54202566148597,
        "Longitude(deg)": -96.20078243182208,
        "Mean Anomaly(deg)": -283.3835893816871,
        "RAAN(deg)": 299.9924391154847,
        "Satellite Name": "Test1 1324",
        "Satellite Number": 1324,
        "Semi-Major Axis(m)": 6980739.136638005,
        "Time(s)": 180
    },
    {
        "Altitude(m)": 611668.4705711786,
        "Argument of Periapsis(deg)": 0.0019795997235263173,
        "Eccentricity": 0.0,
        "Inclination(deg)": 60.0,
        "Latitude(deg)": 57.76821022513796,
        "Longitude(deg)": -95.16664268157898,
        "Mean Anomaly(deg)": -282.7634832362252,
        "RAAN(deg)": 299.99201906634494,
        "Satellite Name": "Test1 1324",
        "Satellite Number": 1324,
        "Semi-Major Axis(m)": 6980739.136638005,
        "Time(s)": 190
    }
]